[{"OBJECT_NAME":"STARLINK-4126","OBJECT_ID":"2022-062AP","EPOCH":"2026-03-09T06:00:48.406464","MEAN_MOTION":15.08814909,"ECCENTRICITY":0.0001258,"INCLINATION":53.2186,"RA_OF_ASC_NODE":26.0897,"ARG_OF_PERICENTER":71.3014,"MEAN_ANOMALY":288.8114,"EPHEMERIS_TYPE":0,"CLASSIFICATION_TYPE":"U","NORAD_CAT_ID":52867,"ELEMENT_SET_NO":999,"REV_AT_EPOCH":20586,"BSTAR":0.00014609846,"MEAN_MOTION_DOT":2.037e-5,"MEAN_MOTION_DDOT":0},{"OBJECT_NAME":"PSLV DEB","OBJECT_ID":"2001-049PF","EPOCH":"2026-02-25T09:35:51.227808","MEAN_MOTION":15.03011877,"ECCENTRICITY":0.00263657,"INCLINATION":98.0083,"RA_OF_ASC_NODE":118.9106,"ARG_OF_PERICENTER":265.6966,"MEAN_ANOMALY":94.1245,"EPHEMERIS_TYPE":0,"CLASSIFICATION_TYPE":"U","NORAD_CAT_ID":28853,"ELEMENT_SET_NO":999,"REV_AT_EPOCH":68879,"BSTAR":0.00037786861,"MEAN_MOTION_DOT":5.057e-5,"MEAN_MOTION_DDOT":0}]
